NORAD_CAT_ID,OBJECT_NAME,OBJECT_TYPE,EPOCH,MEAN_MOTION,ECCENTRICITY,INCLINATION,RA_OF_ASC_NODE,ARG_OF_PERICENTER,MEAN_ANOMALY,BSTAR,MEAN_MOTION_DOT,MEAN_MOTION_DDOT,TLE_LINE0,TLE_LINE1,TLE_LINE2,SEMIMAJOR_AXIS,PERIOD,APOGEE,PERIGEE,DECAYED
49432.0,STARLINK-3158,PAYLOAD,2022-11-07 05:06:38,15.08833902,0.0003451,53.2163,289.0721,23.5548,336.5602,5.1493e-05,5.31e-06,0.0,0 STARLINK-3158,1 49432U 21104AA  22311.21295089  .00000531  00000-0  51493-4 0  9990,2 49432  53.2163 289.0721 0003451  23.5548 336.5602 15.08833902 55906,6917.899,95.438,542.151,537.377,0.0
49432.0,STARLINK-3158,PAYLOAD,2022-11-07 16:14:21,15.08825509,0.0003112,53.2182,286.9877,26.9721,333.1433,5.0955e-05,5.22e-06,0.0,0 STARLINK-3158,1 49432U 21104AA  22311.67663821  .00000522  00000-0  50955-4 0  9995,2 49432  53.2182 286.9877 0003112  26.9721 333.1433 15.08825509 55975,6917.925,95.438,541.943,537.637,0.0
49432.0,STARLINK-3158,PAYLOAD,2022-11-08 04:57:25,15.08846507,0.0003505,53.2169,284.6099,23.7116,336.4037,6.9468e-05,8.17e-06,0.0,0 STARLINK-3158,1 49432U 21104AA  22312.20654606  .00000817  00000-0  69468-4 0  9992,2 49432  53.2169 284.6099 0003505  23.7116 336.4037 15.08846507 56057,6917.86,95.437,542.15,537.3009999999998,0.0
49432.0,STARLINK-3158,PAYLOAD,2022-11-08 08:08:11,15.08853093,0.0003505,53.2167,284.0142,27.0029,333.1144,0.00012034,1.628e-05,0.0,0 STARLINK-3158,1 49432U 21104AA  22312.33901979  .00001628  00000-0  12034-3 0  9991,2 49432  53.2167 284.0142 0003505  27.0029 333.1144 15.08853093 56071,6917.84,95.437,542.13,537.281,0.0
49432.0,STARLINK-3158,PAYLOAD,2022-11-08 22:26:38,15.08858784,0.0003453,53.217,281.3377,26.3575,333.7592,0.00024225,3.571e-05,0.0,0 STARLINK-3158,1 49432U 21104AA  22312.93517087  .00003571  00000-0  24225-3 0  9994,2 49432  53.2170 281.3377 0003453  26.3575 333.7592 15.08858784 55080,6917.823,95.436,542.077,537.299,0.0
49432.0,STARLINK-3158,PAYLOAD,2022-11-09 14:20:31,15.08835683,0.0004038,53.2157,278.3611,26.4569,333.6628,-5.195e-05,-1.116e-05,0.0,0 STARLINK-3158,1 49432U 21104AA  22313.59758561 -.00001116  00000-0 -51950-4 0  9992,2 49432  53.2157 278.3611 0004038  26.4569 333.6628 15.08835683 55189,6917.894,95.438,542.552,536.965,0.0
49432.0,STARLINK-3158,PAYLOAD,2022-11-10 04:39:00,15.08821316,0.0003286,53.2156,275.6883,19.6996,340.4122,-0.00029841,-5.033e-05,0.0,0 STARLINK-3158,1 49432U 21104AA  22314.19375684 -.00005033  00000-0 -29841-3 0  9995,2 49432  53.2156 275.6883 0003286  19.6996 340.4122 15.08821316 56354,6917.937,95.439,542.076,537.529,0.0
49432.0,STARLINK-3158,PAYLOAD,2022-11-10 09:25:09,15.08821811,0.0003311,53.2162,274.7971,19.2667,340.8449,-0.00035257,-5.893e-05,0.0,0 STARLINK-3158,1 49432U 21104AA  22314.39247447 -.00005893  00000-0 -35257-3 0  9994,2 49432  53.2162 274.7971 0003311  19.2667 340.8449 15.08821811 55309,6917.936,95.439,542.092,537.51,0.0
49432.0,STARLINK-3158,PAYLOAD,2022-11-11 04:29:48,15.08847582,0.0003151,53.2161,271.2293,16.5323,343.5771,0.0014114,0.00022252,0.0,0 STARLINK-3158,1 49432U 21104AA  22315.18736394  .00022252  00000-0  14114-2 0  9990,2 49432  53.2161 271.2293 0003151  16.5323 343.5771 15.08847582 56502,6917.857,95.437,541.9019999999998,537.5419999999998,0.0
49432.0,STARLINK-3158,PAYLOAD,2022-11-11 09:15:57,15.08857262,0.0003167,53.216,270.3365,16.3481,343.7613,0.0014874,0.00023476,0.0,0 STARLINK-3158,1 49432U 21104AA  22315.38608225  .00023476  00000-0  14874-2 0  9995,2 49432  53.2160 270.3365 0003167  16.3481 343.7613 15.08857262 55457,6917.828,95.436,541.884,537.502,0.0
49432.0,STARLINK-3158,PAYLOAD,2022-11-12 04:20:34,15.08847055,0.000313,53.2155,266.7687,12.2298,347.8769,0.00084349,0.00013165,0.0,0 STARLINK-3158,1 49432U 21104AA  22316.18095864  .00013165  00000-0  84349-3 0  9992,2 49432  53.2155 266.7687 0003130  12.2298 347.8769 15.08847055 56657,6917.859,95.437,541.889,537.559,0.0
49432.0,STARLINK-3158,PAYLOAD,2022-11-12 09:06:44,15.08848002,0.0003139,53.2154,265.8765,15.3786,344.7301,0.00064005,9.915e-05,0.0,0 STARLINK-3158,1 49432U 21104AA  22316.37967885  .00009915  00000-0  64005-3 0  9999,2 49432  53.2154 265.8765 0003139  15.3786 344.7301 15.08848002 55603,6917.856,95.437,541.8919999999998,537.549,0.0
49432.0,STARLINK-3158,PAYLOAD,2022-11-13 04:11:22,15.08832466,0.0003296,53.2155,262.3082,20.8803,339.2323,-6.95e-06,-3.99e-06,0.0,0 STARLINK-3158,1 49432U 21104AA  22317.17456933 -.00000399  00000-0 -69500-5 0  9991,2 49432  53.2155 262.3082 0003296  20.8803 339.2323 15.08832466 56806,6917.903,95.438,542.049,537.488,0.0
49432.0,STARLINK-3158,PAYLOAD,2022-11-13 05:46:45,15.08835383,0.0003298,53.2155,262.0108,21.2737,338.8392,7.9746e-05,9.81e-06,0.0,0 STARLINK-3158,1 49432U 21104AA  22317.24080880  .00000981  00000-0  79746-4 0  9990,2 49432  53.2155 262.0108 0003298  21.2737 338.8392 15.08835383 55738,6917.895,95.438,542.0409999999998,537.4780000000002,0.0
49432.0,STARLINK-3158,PAYLOAD,2022-11-13 13:43:41,15.08842387,0.000328,53.2155,260.5236,21.3479,338.7649,0.00031197,4.681e-05,0.0,0 STARLINK-3158,1 49432U 21104AA  22317.57200790  .00004681  00000-0  31197-3 0  9998,2 49432  53.2155 260.5236 0003280  21.3479 338.7649 15.08842387 56869,6917.873000000001,95.437,542.007,537.469,0.0
49432.0,STARLINK-3158,PAYLOAD,2022-11-14 05:37:32,15.08847746,0.000341,53.2155,257.5504,23.713,336.4019,0.00050493,7.759e-05,0.0,0 STARLINK-3158,1 49432U 21104AA  22318.23440864  .00007759  00000-0  50493-3 0  9999,2 49432  53.2155 257.5504 0003410  23.7130 336.4019 15.08847746 55889,6917.857,95.437,542.081,537.363,0.0
49432.0,STARLINK-3158,PAYLOAD,2022-11-14 13:34:27,15.08871883,0.0003253999999999,53.2157,256.0629,19.188,340.9234,0.0010260999999999,0.00016095,0.0,0 STARLINK-3158,1 49432U 21104AA  22318.56559701  .00016095  00000-0  10261-2 0  9997,2 49432  53.2157 256.0629 0003254  19.1880 340.9234 15.08871883 55934,6917.783,95.436,541.899,537.3969999999998,0.0
49432.0,STARLINK-3158,PAYLOAD,2022-11-14 23:06:46,15.08857092,0.0003155,53.2158,254.2791,18.1843,341.9262,0.00018355,2.635e-05,0.0,0 STARLINK-3158,1 49432U 21104AA  22318.96303509  .00002635  00000-0  18355-3 0  9992,2 49432  53.2158 254.2791 0003155  18.1843 341.9262 15.08857092 57078,6917.828,95.436,541.876,537.511,0.0
49432.0,STARLINK-3158,PAYLOAD,2022-11-15 05:28:19,15.08842187,0.0003452,53.2156,253.0897,21.0375,339.0758,-0.00023595,-4.043e-05,0.0,0 STARLINK-3158,1 49432U 21104AA  22319.22799893 -.00004043  00000-0 -23595-3 0  9996,2 49432  53.2156 253.0897 0003452  21.0375 339.0758 15.08842187 57115,6917.874,95.437,542.127,537.351,0.0
49432.0,STARLINK-3158,PAYLOAD,2022-11-15 07:03:42,15.08844954,0.000338,53.2154,252.7923,22.8784,337.2358,-3.6684e-05,-8.73e-06,0.0,0 STARLINK-3158,1 49432U 21104AA  22319.29424234 -.00000873  00000-0 -36684-4 0  9998,2 49432  53.2154 252.7923 0003380  22.8784 337.2358 15.08844954 56043,6917.865,95.437,542.068,537.3919999999998,0.0
49432.0,STARLINK-3158,PAYLOAD,2022-11-16 05:19:06,15.08835546,0.0003501,53.2152,248.6293,18.1071,342.0045,2.9181e-05,1.76e-06,0.0,0 STARLINK-3158,1 49432U 21104AA  22320.22160213  .00000176  00000-0  29181-4 0  9995,2 49432  53.2152 248.6293 0003501  18.1071 342.0045 15.08835546 56186,6917.894,95.438,542.181,537.337,0.0
49432.0,STARLINK-3158,PAYLOAD,2022-11-17 01:59:07,15.08833378,0.0003456,53.2152,244.7633,18.8225,341.2894,0.00012976,1.777e-05,0.0,0 STARLINK-3158,1 49432U 21104AA  22321.08272836  .00001777  00000-0  12976-3 0  9996,2 49432  53.2152 244.7633 0003456  18.8225 341.2894 15.08833378 57396,6917.901,95.438,542.156,537.375,0.0
49432.0,STARLINK-3158,PAYLOAD,2022-11-18 03:25:18,15.08834938,0.0003506,53.2158,240.0056,20.4749,339.6383,9.0732e-05,1.155e-05,0.0,0 STARLINK-3158,1 49432U 21104AA  22322.14257134  .00001155  00000-0  90732-4 0  9995,2 49432  53.2158 240.0056 0003506  20.4749 339.6383 15.08834938 57551,6917.896,95.438,542.186,537.335,0.0
49432.0,STARLINK-3158,PAYLOAD,2022-11-19 04:51:28,15.08839628,0.0003567,53.2159,235.2478,21.1471,338.9668,0.00010083,1.316e-05,0.0,0 STARLINK-3158,1 49432U 21104AA  22323.20241203  .00001316  00000-0  10083-3 0  9992,2 49432  53.2159 235.2478 0003567  21.1471 338.9668 15.08839628 57710,6917.882,95.438,542.214,537.279,0.0
49432.0,STARLINK-3158,PAYLOAD,2022-11-19 06:26:51,15.08840309,0.0003571,53.2159,234.9503,21.144,338.9699,0.00010518,1.386e-05,0.0,0 STARLINK-3158,1 49432U 21104AA  22323.26865168  .00001386  00000-0  10518-3 0  9990,2 49432  53.2159 234.9503 0003571  21.1440 338.9699 15.08840309 56649,6917.879,95.438,542.215,537.274,0.0
49432.0,STARLINK-3158,PAYLOAD,2022-11-20 11:03:47,15.08842268,0.0003503,53.2158,229.5975,22.6474,337.4672,0.00011495,1.541e-05,0.0,0 STARLINK-3158,1 49432U 21104AA  22324.46097135  .00001541  00000-0  11495-3 0  9992,2 49432  53.2158 229.5975 0003503  22.6474 337.4672 15.08842268 57900,6917.873000000001,95.437,542.1619999999998,537.315,0.0
49432.0,STARLINK-3158,PAYLOAD,2022-11-20 20:36:07,15.08833072,0.0003546999999999,53.2158,227.8134,23.7632,336.3523,2.533e-05,1.14e-06,0.0,0 STARLINK-3158,1 49432U 21104AA  22324.85841652  .00000114  00000-0  25330-4 0  9995,2 49432  53.2158 227.8134 0003547  23.7632 336.3523 15.08833072 56886,6917.901999999999,95.438,542.22,537.313,0.0
49432.0,STARLINK-3158,PAYLOAD,2022-11-21 06:08:25,15.08842324,0.0003591,53.2164,226.0293,23.2475,336.8679,0.00013597,1.876e-05,0.0,0 STARLINK-3158,1 49432U 21104AA  22325.25585306  .00001876  00000-0  13597-3 0  9998,2 49432  53.2164 226.0293 0003591  23.2475 336.8679 15.08842324 56943,6917.873000000001,95.437,542.222,537.254,0.0
49432.0,STARLINK-3158,PAYLOAD,2022-11-21 17:16:07,15.08844384,0.0003526,53.2164,223.9478,24.8232,335.2929,9.7845e-05,1.269e-05,0.0,0 STARLINK-3158,1 49432U 21104AA  22325.71953163  .00001269  00000-0  97845-4 0  9994,2 49432  53.2164 223.9478 0003526  24.8232 335.2929 15.08844384 58097,6917.8669999999975,95.437,542.1709999999998,537.293,0.0
